STARLINK-30108
1 56299U 23056P   26060.88375141  .00009463  00000+0  55371-3 0  9993
2 56299  43.0012 239.3019 0002521 283.6332  76.4233 15.11992730159061
